{"type": "FeatureCollection", "features": [ {"type": "Feature", "properties": {"norad_id": 58655, "name": "BEIDOU-3 M26 (C48)", "group": "beidou", "lat": -35.40592824721001, "lon": 39.77640811010044, "alt_km": 21528.325256970093, "timestamp": "2025-12-03T13:52:09.827122+00:00", "meta": {"OBJECT_NAME": "BEIDOU-3 M26 (C48)", "OBJECT_ID": "2023-207B", "EPOCH": "2025-12-03T02:34:45.227424", "MEAN_MOTION": 1.86231091, "ECCENTRICITY": 0.00034591, "INCLINATION": 55.5782, "RA_OF_ASC_NODE": 68.9139, "ARG_OF_PERICENTER": 250.5367, "MEAN_ANOMALY": 109.429, "EPHEMERIS_TYPE": 0, "CLASSIFICATION_TYPE": "U", "NORAD_CAT_ID": 58655, "ELEMENT_SET_NO": 999, "REV_AT_EPOCH": 1317, "BSTAR": 0, "MEAN_MOTION_DOT": -5e-07, "MEAN_MOTION_DDOT": 0}, "tle": {"line1": "1 58655U 23207B   25337.10746791 -.00000050  00000+0  00000+0 0  9992", "line2": "2 58655  55.5782  68.9139 0003459 250.5367 109.4290  1.86231091 13176"}}, "geometry": {"type": "Point", "coordinates": [39.77640811010044, -35.40592824721001]}}, {"type": "Feature", "properties": {"norad_id": 61186, "name": "BEIDOU-3 M25 (C47)", "group": "beidou", "lat": 51.01010747561151, "lon": 10.243709743646695, "alt_km": 21533.875643407122, "timestamp": "2025-12-03T13:52:09.827143+00:00", "meta": {"OBJECT_NAME": "BEIDOU-3 M25 (C47)", "OBJECT_ID": "2024-168B", "EPOCH": "2025-12-01T06:18:53.159328", "MEAN_MOTION": 1.86229803, "ECCENTRICITY": 0.000556, "INCLINATION": 54.6528, "RA_OF_ASC_NODE": 309.1184, "ARG_OF_PERICENTER": 293.396, "MEAN_ANOMALY": 26.9682, "EPHEMERIS_TYPE": 0, "CLASSIFICATION_TYPE": "U", "NORAD_CAT_ID": 61186, "ELEMENT_SET_NO": 999, "REV_AT_EPOCH": 809, "BSTAR": 0, "MEAN_MOTION_DOT": -5.7e-07, "MEAN_MOTION_DDOT": 0}, "tle": {"line1": "1 61186U 24168B   25335.26311527 -.00000057  00000+0  00000+0 0  9999", "line2": "2 61186  54.6528 309.1184 0005560 293.3960  26.9682  1.86229803  8097"}}, "geometry": {"type": "Point", "coordinates": [10.243709743646695, 51.01010747561151]}}, {"type": "Feature", "properties": {"norad_id": 61187, "name": "BEIDOU-3 M27 (C49)", "group": "beidou", "lat": -21.94366903015315, "lon": 145.6146711776774, "alt_km": 21534.291058552633, "timestamp": "2025-12-03T13:52:09.827163+00:00", "meta": {"OBJECT_NAME": "BEIDOU-3 M27 (C49)", "OBJECT_ID": "2024-168C", "EPOCH": "2025-12-01T06:11:08.494080", "MEAN_MOTION": 1.86229947, "ECCENTRICITY": 0.0002285, "INCLINATION": 54.6482, "RA_OF_ASC_NODE": 309.1022, "ARG_OF_PERICENTER": 327.2674, "MEAN_ANOMALY": 124.4273, "EPHEMERIS_TYPE": 0, "CLASSIFICATION_TYPE": "U", "NORAD_CAT_ID": 61187, "ELEMENT_SET_NO": 999, "REV_AT_EPOCH": 557, "BSTAR": 0, "MEAN_MOTION_DOT": -5.7e-07, "MEAN_MOTION_DDOT": 0}, "tle": {"line1": "1 61187U 24168C   25335.25773720 -.00000057  00000+0  00000+0 0  9996", "line2": "2 61187  54.6482 309.1022 0002285 327.2674 124.4273  1.86229947  5577"}}, "geometry": {"type": "Point", "coordinates": [145.6146711776774, -21.94366903015315]}}]}